RISAT-2BR2              
1 46905U 20081A   26068.52426450  .00004901  00000+0  37609-3 0  9996
2 46905  36.8980  95.9121 0010905  52.9142 307.2595 15.01602463292489
STARLINK-6136           
1 56540U 23065AP  26068.41290024  .00000023  00000+0  16772-4 0  9991
2 56540  43.0027 224.8178 0001393 269.9484  90.1199 15.02534000156436
